DUCHIFAT-1              
1 40021U 14033M   26190.11683618  .00097268  00000+0  81159-3 0  9998
2 40021  98.0435 252.4424 0001719 258.2829 101.8238 15.69759950659183
NANOSATC-BR1            
1 40024U 14033Q   26189.89295221  .00012243  00000+0  39647-3 0  9998
2 40024  98.0720 224.2139 0005305 111.5840 248.5966 15.32184216657308
QB50P1                  
1 40025U 14033R   26189.96268602  .00005242  00000+0  25682-3 0  9995
2 40025  98.0972 202.6398 0009975 143.0121 217.1801 15.18602701656334
DTUSAT-2                
1 40030U 14033W   26190.22961545  .00004789  00000+0  25806-3 0  9991
2 40030  98.0874 189.3609 0008863 149.7588 210.4156 15.15302534656025
QB50P2                  
1 40032U 14033Y   26189.95766014  .00004607  00000+0  24733-3 0  9992
2 40032  98.0762 188.1976 0009329 101.2367 258.9913 15.15452069655962
PERSEUS-M1              
1 40039U 14033AF  26190.31421509  .00001284  00000+0  12072-3 0  9999
2 40039  97.9647 134.8109 0010588 217.9052 142.1424 14.95700886653947
POLYITAN-1              
1 40042U 14033AJ  26190.04009571  .00013569  00000+0  41372-3 0  9998
2 40042  98.0943 218.3797 0008317  82.3047 277.9138 15.34063134656942
TIGRISAT                
1 40043U 14033AK  26190.14651385  .00001209  00000+0  14433-3 0  9992
2 40043  97.7856 339.6587 0049175   4.2911 355.8715 14.85238395648885
CANX-4                  
1 40055U 14034C   26190.10552868  .00000612  00000+0  85748-4 0  9993
2 40055  98.3094  66.2205 0011635 304.5619  55.4494 14.81304286647773
CANX-5                  
1 40056U 14034D   26190.10370604  .00000612  00000+0  85658-4 0  9990
2 40056  98.3096  66.2635 0011636 304.7707  55.2409 14.81321616638583
GONETS-M 10             
1 40063U 14036C   26190.28661367  .00000104  00000+0  67933-3 0  9999
2 40063  82.5119 293.9490 0022997  94.6498 265.7209 12.42946613544996
METEOR-M 2              
1 40069U 14037A   26190.24802106  .00000353  00000+0  18055-3 0  9997
2 40069  98.5129 165.2063 0005523 345.7482  14.3539 14.21469366622452
DX1                     
1 40071U 14037C   26190.32080531  .00001793  00000+0  19219-3 0  9991
2 40071  98.3876 153.3676 0006574 188.6572 171.4531 14.90054337649406
UKUBE-1                 
1 40074U 14037F   26189.98238363  .00004805  00000+0  26984-3 0  9996
2 40074  98.4245 195.5495 0003273  99.1613 260.9986 15.13887025651856
GAOFEN-2                
1 40118U 14049A   26190.33837176  .00000721  00000+0  10014-3 0  9996
2 40118  98.0096 254.5237 0007868 151.6249 208.5393 14.80924302642514
BRITE-PL2 (HEWELIUSZ)   
1 40119U 14049B   26190.26496503  .00001666  00000+0  15885-3 0  9994
2 40119  97.9114 302.4379 0014777  41.3663 318.8673 14.94675108644741
CBERS 4                 
1 40336U 14079A   26190.34178731  .00000170  00000+0  73907-4 0  9996
2 40336  98.3519 246.4774 0001038  50.0564 310.0713 14.35515531607134
SMAP                    
1 40376U 15003A   26190.30206182  .00000286  00000+0  64423-4 0  9997
2 40376  98.1280 197.0836 0001549  96.8898 263.2480 14.63386010610858
GONETS-M 11             
1 40552U 15020A   26190.30618376  .00000011  00000+0  10159-4 0  9997
2 40552  82.4868  17.2061 0015593 316.9753  43.0107 12.42878110511486
GONETS-M 12             
1 40553U 15020B   26190.27943602  .00000008  00000+0 -14004-4 0  9997
2 40553  82.4902  18.3524 0014398 301.1512  58.8155 12.42891758511472
GONETS-M 13             
1 40554U 15020C   26190.33378396  .00000151  00000+0  10234-2 0  9994
2 40554  82.4864  16.9272 0012858 285.1360  74.8297 12.42871999511453
DMC3-FM1                
1 40715U 15032A   26190.29534164 -.00000081  00000+0 -34749-5 0  9992
2 40715  97.6438  54.6000 0005463 357.3436   2.7750 14.85761335593191
DMC3-FM2                
1 40716U 15032B   26190.24995751  .00000559  00000+0  70230-4 0  9993
2 40716  97.6491  56.1453 0006096   2.0943 358.0297 14.85769678593180
DMC3-FM3                
1 40717U 15032C   26190.27344059  .00000778  00000+0  95523-4 0  9991
2 40717  97.6544  57.9351 0005435   4.6138 355.5127 14.85761143593190
CARBONITE 1 (CBNT-1)    
1 40718U 15032D   26190.30420295  .00000664  00000+0  86516-4 0  9999
2 40718  97.6523   7.4462 0013432 217.6133 142.4143 14.83654132592623
LILACSAT-2              
1 40908U 15049K   26190.26100828  .00014987  00000+0  24851-3 0  9996
2 40908  97.4632 227.9487 0007953 159.2381 200.9196 15.52208169599173
